     2.11           G: GLONASS NAV DATA                     RINEX VERSION / TYPE
teqc  2019Feb25     CORS-ADM Account    20201005 15:49:08UTCPGM / RUN BY / DATE
Linux 2.4.21-27.ELsmp|Opteron|gcc|Linux 64|=+               COMMENT
     2.10           G: GLONASS NAV DATA                     COMMENT
gvacn.e(1510.26)                        2020-10-05T12:31 UTCCOMMENT
This file contains the validated broadcast navigation       COMMENT
messages from the following files:                          COMMENT
abmf2750.20g, abpo2750.20g, albh2750.20g, alic2750.20g,     COMMENT
areq2750.20g, aspa2750.20g, badg2750.20g, bake2750.20g,     COMMENT
barh2750.20g, bjfs2750.20g, bogt2750.20g, brew2750.20g,     COMMENT
cas12750.20g, cedu2750.20g, chur2750.20g, ckis2750.20g,     COMMENT
cro12750.20g, daej2750.20g, darw2750.20g, dav12750.20g,     COMMENT
dgar2750.20g, drao2750.20g, dubo2750.20g, fair2750.20g,     COMMENT
falk2750.20g, flin2750.20g, glps2750.20g, glsv2750.20g,     COMMENT
gode2750.20g, godz2750.20g, gold2750.20g, harb2750.20g,     COMMENT
hlfx2750.20g, hob22750.20g, holb2750.20g, hrao2750.20g,     COMMENT
iisc2750.20g, irkj2750.20g, jplm2750.20g, kat12750.20g,     COMMENT
kerg2750.20g, kokb2750.20g, kokv2750.20g, krgg2750.20g,     COMMENT
laut2750.20g, lmmf2750.20g, lpal2750.20g, maw12750.20g,     COMMENT
mbar2750.20g, mcm42750.20g, mdo12750.20g, mdvj2750.20g,     COMMENT
mkea2750.20g, mobs2750.20g, mtka2750.20g, nano2750.20g,     COMMENT
nico2750.20g, nklg2750.20g, nvsk2750.20g, ohi22750.20g,     COMMENT
pie12750.20g, pimo2750.20g, pol22750.20g, polv2750.20g,     COMMENT
reun2750.20g, sant2750.20g, sch22750.20g, stjo2750.20g,     COMMENT
suth2750.20g, sydn2750.20g, tehn2750.20g, thti2750.20g,     COMMENT
tid12750.20g, unbj2750.20g, vndp2750.20g, whit2750.20g,     COMMENT
will2750.20g, yarr2750.20g, yebe2750.20g, yell2750.20g,     COMMENT
zamb2750.20g                                                COMMENT
  2020    10     2   -9.313225746155D-10                    CORR TO SYSTEM TIME
                                                            END OF HEADER
 3 20 10  1  4 45  0.0 2.299994230270D-05 9.094947017729D-13 1.620000000000D+04
   -1.370876220703D+04-1.409877777100D+00 9.313225746155D-10 0.000000000000D+00
   -4.385045898438D+03-2.510828018188D+00 0.000000000000D+00 5.000000000000D+00
    2.108115332031D+04-1.446196556091D+00-1.862645149231D-09 0.000000000000D+00
 4 20 10  1  4 45  0.0 5.642604082823D-05 1.818989403546D-12 1.626000000000D+04
   -4.892431152344D+03-1.339145660400D+00 0.000000000000D+00 0.000000000000D+00
    1.249986962891D+04-2.649684906006D+00 2.793967723846D-09 6.000000000000D+00
    2.171201757812D+04 1.224180221558D+00-1.862645149231D-09 0.000000000000D+00
 5 20 10  1  4 45  0.0 5.851592868567D-05 9.094947017729D-13 1.620000000000D+04
    6.534478027344D+03-5.018424987793D-01-1.862645149231D-09 0.000000000000D+00
    2.249935839844D+04-1.301166534424D+00 3.725290298462D-09 1.000000000000D+00
    1.012076171875D+04 3.215583801270D+00-9.313225746155D-10 0.000000000000D+00
 6 20 10  1  4 45  0.0 1.847492530942D-04 9.094947017729D-13 1.620000000000D+04
    1.532679687500D+04 7.340650558472D-01-2.793967723846D-09 0.000000000000D+00
    1.818138525391D+04 1.041182518005D+00 2.793967723846D-09-4.000000000000D+00
   -9.281707519531D+03 3.254729270935D+00 9.313225746155D-10 0.000000000000D+00
 7 20 10  1  4 45  0.0-4.048645496368D-05-0.000000000000D+00 1.620000000000D+04
    1.353125683594D+04 1.424147605896D+00-9.313225746155D-10 0.000000000000D+00
    3.912217285156D+03 2.544874191284D+00-0.000000000000D+00 5.000000000000D+00
   -2.124753564453D+04 1.369442939758D+00 1.862645149231D-09 0.000000000000D+00
 8 20 10  1  4 45  0.0-5.486793816090D-05-0.000000000000D+00 1.620000000000D+04
    4.978995605469D+03 1.346467971802D+00 0.000000000000D+00 0.000000000000D+00
   -1.253187109375D+04 2.648366928101D+00-2.793967723846D-09 6.000000000000D+00
   -2.160097412109D+04-1.225102424622D+00 1.862645149231D-09 0.000000000000D+00
 9 20 10  1  4 45  0.0 1.573851332068D-04 1.818989403546D-12 1.620000000000D+04
    2.228862939453D+04-1.483842849731D+00-1.862645149231D-09 0.000000000000D+00
    5.884686035156D+03-1.353731155396D-01-0.000000000000D+00-2.000000000000D+00
   -1.082254248047D+04-3.130305290222D+00 9.313225746155D-10 3.000000000000D+00
10 20 10  1  4 45  0.0-6.262678653002D-05 0.000000000000D+00 1.620000000000D+04
    2.549945117188D+04 2.064352035522D-01-1.862645149231D-09 0.000000000000D+00
   -1.686547851562D+02-1.602296829224D-01-9.313225746155D-10-7.000000000000D+00
    1.484926269531D+03-3.556577682495D+00 0.000000000000D+00 0.000000000000D+00
11 20 10  1  4 45  0.0-3.954768180847D-05-9.094947017729D-13 1.620000000000D+04
    1.573725683594D+04 2.491058349609D+00-9.313225746155D-10 0.000000000000D+00
   -8.438312500000D+03-1.017856597900D-02-1.862645149231D-09 0.000000000000D+00
    1.821394140625D+04-2.164189338684D+00-1.862645149231D-09 0.000000000000D+00
12 20 10  1  4 45  0.0 1.681782305241D-04 3.637978807092D-12 1.620000000000D+04
   -1.965578125000D+03 3.133924484253D+00 9.313225746155D-10 0.000000000000D+00
   -1.098494482422D+04 1.093864440918D-01-1.862645149231D-09-1.000000000000D+00
    2.297004833984D+04 3.225831985474D-01-2.793967723846D-09 0.000000000000D+00
13 20 10  1  4 45  0.0-4.461407661438D-05 0.000000000000D+00 1.620000000000D+04
   -1.937471728516D+04 2.027367591858D+00 1.862645149231D-09 0.000000000000D+00
   -7.455545410156D+03 1.631660461426D-01 0.000000000000D+00-2.000000000000D+00
    1.481678564453D+04 2.730990409851D+00-9.313225746155D-10 0.000000000000D+00
14 20 10  1  4 45  0.0 5.610194057226D-05 0.000000000000D+00 1.782000000000D+04
   -2.540924951172D+04-3.222646713257D-01 1.862645149231D-09 0.000000000000D+00
    3.272231445312D+02 1.358070373535D-01 1.862645149231D-09-7.000000000000D+00
   -2.303667480469D+03 3.542622566223D+00 0.000000000000D+00 0.000000000000D+00
15 20 10  1  4 45  0.0 1.070033758879D-04-0.000000000000D+00 1.620000000000D+04
   -1.660613525391D+04-2.426359176636D+00 9.313225746155D-10 0.000000000000D+00
    7.873742187500D+03 1.990985870361D-02 2.793967723846D-09 0.000000000000D+00
   -1.766232324219D+04 2.286266326904D+00 1.862645149231D-09 0.000000000000D+00
16 20 10  1  4 45  0.0-6.837770342827D-06-0.000000000000D+00 1.620000000000D+04
    3.173333007812D+03-3.111950874329D+00-9.313225746155D-10 0.000000000000D+00
    1.108245458984D+04-5.161190032959D-02 1.862645149231D-09-1.000000000000D+00
   -2.277766992188D+04-4.475870132446D-01 1.862645149231D-09 0.000000000000D+00
17 20 10  1  4 45  0.0 3.625992685556D-04 2.728484105319D-12 1.620000000000D+04
   -1.492119677734D+04 1.518370628357D+00 9.313225746155D-10 0.000000000000D+00
    7.164984863281D+03-2.187911033630D+00 1.862645149231D-09 4.000000000000D+00
   -1.938265087891D+04-1.981312751770D+00 1.862645149231D-09 0.000000000000D+00
18 20 10  1  4 45  0.0 5.121622234583D-05 9.094947017729D-13 1.764000000000D+04
   -1.537490478516D+04 6.014041900635D-01-0.000000000000D+00 0.000000000000D+00
    1.963168652344D+04-5.072450637817D-01 4.656612873077D-09-3.000000000000D+00
   -5.465465332031D+03-3.501781463623D+00 0.000000000000D+00 0.000000000000D+00
19 20 10  1  4 45  0.0-1.134919002652D-04-9.094947017729D-13 1.749000000000D+04
   -8.537794433594D+03-6.405735015869D-01-0.000000000000D+00 0.000000000000D+00
    2.144577734375D+04 1.361165046692D+00 4.656612873077D-09 3.000000000000D+00
    1.083829150391D+04-3.198583602905D+00-9.313225746155D-10 0.000000000000D+00
20 20 10  1  4 45  0.0-4.230765625834D-04 0.000000000000D+00 1.638000000000D+04
    5.381280273438D+03-1.693527221680D+00-9.313225746155D-10 0.000000000000D+00
    1.015393847656D+04 2.624550819397D+00 1.862645149231D-09 2.000000000000D+00
    2.278221337891D+04-7.669963836670D-01-1.862645149231D-09 0.000000000000D+00
21 20 10  1  4 45  0.0-1.559369266033D-04-2.728484105319D-12 1.620000000000D+04
    1.520209375000D+04-1.495948791504D+00-9.313225746155D-10 0.000000000000D+00
   -8.189418945312D+03 2.100838661194D+00-1.862645149231D-09 4.000000000000D+00
    1.878940722656D+04 2.122378349304D+00-1.862645149231D-09 0.000000000000D+00
22 20 10  1  4 45  0.0-7.546506822109D-05-1.818989403546D-12 1.620000000000D+04
    1.512221875000D+04-5.179271697998D-01-0.000000000000D+00 0.000000000000D+00
   -2.003358007812D+04 3.682756423950D-01-5.587935447693D-09-3.000000000000D+00
    4.273169433594D+03 3.554098129272D+00-0.000000000000D+00 0.000000000000D+00
23 20 10  1  4 45  0.0 3.354791551828D-04 1.818989403546D-12 1.620000000000D+04
    3.202171875000D+03 1.097761154175D+00 9.313225746155D-10 0.000000000000D+00
   -1.893078808594D+04-2.031782150269D+00-4.656612873077D-09 3.000000000000D+00
   -1.680897949219D+04 2.497717857361D+00 1.862645149231D-09 0.000000000000D+00
24 20 10  1  4 45  0.0 1.522339880466D-05 9.094947017729D-13 1.620000000000D+04
   -6.356181640625D+03 1.680248260498D+00 9.313225746155D-10 0.000000000000D+00
   -9.719219726562D+03-2.620335578918D+00-1.862645149231D-09 2.000000000000D+00
   -2.269887402344D+04 6.488199234009D-01 1.862645149231D-09 0.000000000000D+00
 1 20 10  1  5 15  0.0 6.836559623480D-05 0.000000000000D+00 1.800000000000D+04
   -3.143993652344D+03 1.352415084839D+00 9.313225746155D-10 0.000000000000D+00
   -1.833196728516D+04 1.972058296204D+00-3.725290298462D-09 1.000000000000D+00
   -1.746728759766D+04-2.312454223633D+00 1.862645149231D-09 0.000000000000D+00
 2 20 10  1  5 15  0.0 4.479652270675D-04 9.094947017729D-13 1.800000000000D+04
   -1.551138671875D+04-3.109912872314D-01 1.862645149231D-09 0.000000000000D+00
   -2.008900488281D+04-1.516189575195D-01-3.725290298462D-09-4.000000000000D+00
    2.246925292969D+03-3.561633110046D+00-0.000000000000D+00 0.000000000000D+00
